[{"OBJECT_NAME":"STARLINK-37280","OBJECT_ID":"2026-068D","EPOCH":"2026-04-16T21:55:12.967392","MEAN_MOTION":15.80923482,"ECCENTRICITY":6.402e-5,"INCLINATION":53.1579,"RA_OF_ASC_NODE":317.7427,"ARG_OF_PERICENTER":84.1605,"MEAN_ANOMALY":275.9491,"EPHEMERIS_TYPE":0,"CLASSIFICATION_TYPE":"U","NORAD_CAT_ID":68511,"ELEMENT_SET_NO":999,"REV_AT_EPOCH":271,"BSTAR":0.0010210709,"MEAN_MOTION_DOT":0.00206193,"MEAN_MOTION_DDOT":0},{"OBJECT_NAME":"STARLINK-37286","OBJECT_ID":"2026-068E","EPOCH":"2026-04-16T21:54:07.955712","MEAN_MOTION":15.80919085,"ECCENTRICITY":6.304e-5,"INCLINATION":53.1584,"RA_OF_ASC_NODE":317.7388,"ARG_OF_PERICENTER":73.4518,"MEAN_ANOMALY":286.6574,"EPHEMERIS_TYPE":0,"CLASSIFICATION_TYPE":"U","NORAD_CAT_ID":68512,"ELEMENT_SET_NO":999,"REV_AT_EPOCH":271,"BSTAR":0.00066504205,"MEAN_MOTION_DOT":0.00132879,"MEAN_MOTION_DDOT":0},{"OBJECT_NAME":"STARLINK-36250","OBJECT_ID":"2026-068F","EPOCH":"2026-04-16T21:53:03.223104","MEAN_MOTION":15.80921351,"ECCENTRICITY":7.647e-5,"INCLINATION":53.1579,"RA_OF_ASC_NODE":317.7335,"ARG_OF_PERICENTER":78.8029,"MEAN_ANOMALY":281.3079,"EPHEMERIS_TYPE":0,"CLASSIFICATION_TYPE":"U","NORAD_CAT_ID":68513,"ELEMENT_SET_NO":999,"REV_AT_EPOCH":271,"BSTAR":0.00072897494,"MEAN_MOTION_DOT":0.00145958,"MEAN_MOTION_DDOT":0},{"OBJECT_NAME":"STARLINK-37251","OBJECT_ID":"2026-068G","EPOCH":"2026-04-16T21:51:58.508640","MEAN_MOTION":15.80918559,"ECCENTRICITY":0.00010982,"INCLINATION":53.1583,"RA_OF_ASC_NODE":317.728,"ARG_OF_PERICENTER":69.2239,"MEAN_ANOMALY":290.8902,"EPHEMERIS_TYPE":0,"CLASSIFICATION_TYPE":"U","NORAD_CAT_ID":68514,"ELEMENT_SET_NO":999,"REV_AT_EPOCH":271,"BSTAR":0.00078643782,"MEAN_MOTION_DOT":0.00157715,"MEAN_MOTION_DDOT":0},{"OBJECT_NAME":"STARLINK-36293","OBJECT_ID":"2026-068H","EPOCH":"2026-04-16T21:50:53.693088","MEAN_MOTION":15.80903376,"ECCENTRICITY":9.689e-5,"INCLINATION":53.1582,"RA_OF_ASC_NODE":317.7231,"ARG_OF_PERICENTER":74.8111,"MEAN_ANOMALY":285.3019,"EPHEMERIS_TYPE":0,"CLASSIFICATION_TYPE":"U","NORAD_CAT_ID":68515,"ELEMENT_SET_NO":999,"REV_AT_EPOCH":271,"BSTAR":0.00057085575,"MEAN_MOTION_DOT":0.00113621,"MEAN_MOTION_DDOT":0},{"OBJECT_NAME":"STARLINK-36290","OBJECT_ID":"2026-068J","EPOCH":"2026-04-16T21:49:49.314720","MEAN_MOTION":15.80970021,"ECCENTRICITY":8.884e-5,"INCLINATION":53.1582,"RA_OF_ASC_NODE":317.718,"ARG_OF_PERICENTER":99.9949,"MEAN_ANOMALY":260.1174,"EPHEMERIS_TYPE":0,"CLASSIFICATION_TYPE":"U","NORAD_CAT_ID":68516,"ELEMENT_SET_NO":999,"REV_AT_EPOCH":271,"BSTAR":0.00096867737,"MEAN_MOTION_DOT":0.00195756,"MEAN_MOTION_DDOT":0},{"OBJECT_NAME":"STARLINK-36298","OBJECT_ID":"2026-068K","EPOCH":"2026-04-16T21:48:43.941888","MEAN_MOTION":15.80941177,"ECCENTRICITY":0.00011076,"INCLINATION":53.1582,"RA_OF_ASC_NODE":317.7132,"ARG_OF_PERICENTER":26.3117,"MEAN_ANOMALY":333.7962,"EPHEMERIS_TYPE":0,"CLASSIFICATION_TYPE":"U","NORAD_CAT_ID":68517,"ELEMENT_SET_NO":999,"REV_AT_EPOCH":271,"BSTAR":0.0010293442,"MEAN_MOTION_DOT":0.00208083,"MEAN_MOTION_DDOT":0},{"OBJECT_NAME":"STARLINK-36857","OBJECT_ID":"2026-068L","EPOCH":"2026-04-16T21:46:34.426560","MEAN_MOTION":15.8092041,"ECCENTRICITY":6.622e-5,"INCLINATION":53.158,"RA_OF_ASC_NODE":317.7024,"ARG_OF_PERICENTER":74.012,"MEAN_ANOMALY":286.0976,"EPHEMERIS_TYPE":0,"CLASSIFICATION_TYPE":"U","NORAD_CAT_ID":68518,"ELEMENT_SET_NO":999,"REV_AT_EPOCH":271,"BSTAR":0.00094084765,"MEAN_MOTION_DOT":0.0018954,"MEAN_MOTION_DDOT":0},{"OBJECT_NAME":"STARLINK-36326","OBJECT_ID":"2026-068M","EPOCH":"2026-04-16T21:47:39.110784","MEAN_MOTION":15.80906293,"ECCENTRICITY":7.651e-5,"INCLINATION":53.1583,"RA_OF_ASC_NODE":317.7082,"ARG_OF_PERICENTER":82.1171,"MEAN_ANOMALY":277.9939,"EPHEMERIS_TYPE":0,"CLASSIFICATION_TYPE":"U","NORAD_CAT_ID":68519,"ELEMENT_SET_NO":999,"REV_AT_EPOCH":271,"BSTAR":0.00055794291,"MEAN_MOTION_DOT":0.00111017,"MEAN_MOTION_DDOT":0},{"OBJECT_NAME":"STARLINK-37126","OBJECT_ID":"2026-068N","EPOCH":"2026-04-16T21:45:29.624832","MEAN_MOTION":15.80917114,"ECCENTRICITY":3.922e-5,"INCLINATION":53.1579,"RA_OF_ASC_NODE":317.6975,"ARG_OF_PERICENTER":74.3623,"MEAN_ANOMALY":285.7443,"EPHEMERIS_TYPE":0,"CLASSIFICATION_TYPE":"U","NORAD_CAT_ID":68520,"ELEMENT_SET_NO":999,"REV_AT_EPOCH":271,"BSTAR":0.00091538785,"MEAN_MOTION_DOT":0.00184252,"MEAN_MOTION_DDOT":0},{"OBJECT_NAME":"STARLINK-36347","OBJECT_ID":"2026-068P","EPOCH":"2026-04-16T21:44:24.736704","MEAN_MOTION":15.80924067,"ECCENTRICITY":5.131e-5,"INCLINATION":53.1585,"RA_OF_ASC_NODE":317.6929,"ARG_OF_PERICENTER":81.019,"MEAN_ANOMALY":279.0891,"EPHEMERIS_TYPE":0,"CLASSIFICATION_TYPE":"U","NORAD_CAT_ID":68521,"ELEMENT_SET_NO":999,"REV_AT_EPOCH":271,"BSTAR":0.00088466418,"MEAN_MOTION_DOT":0.00177969,"MEAN_MOTION_DDOT":0},{"OBJECT_NAME":"STARLINK-36322","OBJECT_ID":"2026-068Q","EPOCH":"2026-04-16T21:43:19.992864","MEAN_MOTION":15.80924914,"ECCENTRICITY":5.86e-5,"INCLINATION":53.158,"RA_OF_ASC_NODE":317.6878,"ARG_OF_PERICENTER":63.9348,"MEAN_ANOMALY":296.1735,"EPHEMERIS_TYPE":0,"CLASSIFICATION_TYPE":"U","NORAD_CAT_ID":68522,"ELEMENT_SET_NO":999,"REV_AT_EPOCH":271,"BSTAR":0.0009493561,"MEAN_MOTION_DOT":0.00191341,"MEAN_MOTION_DDOT":0},{"OBJECT_NAME":"STARLINK-37208","OBJECT_ID":"2026-068R","EPOCH":"2026-04-16T21:42:14.993280","MEAN_MOTION":15.80941363,"ECCENTRICITY":5.11e-5,"INCLINATION":53.1585,"RA_OF_ASC_NODE":317.6825,"ARG_OF_PERICENTER":78.7909,"MEAN_ANOMALY":281.3171,"EPHEMERIS_TYPE":0,"CLASSIFICATION_TYPE":"U","NORAD_CAT_ID":68523,"ELEMENT_SET_NO":999,"REV_AT_EPOCH":271,"BSTAR":0.0010547873,"MEAN_MOTION_DOT":0.00213381,"MEAN_MOTION_DDOT":0},{"OBJECT_NAME":"STARLINK-36302","OBJECT_ID":"2026-068S","EPOCH":"2026-04-16T21:41:10.334112","MEAN_MOTION":15.80932376,"ECCENTRICITY":8.597e-5,"INCLINATION":53.1587,"RA_OF_ASC_NODE":317.6775,"ARG_OF_PERICENTER":62.9573,"MEAN_ANOMALY":297.1538,"EPHEMERIS_TYPE":0,"CLASSIFICATION_TYPE":"U","NORAD_CAT_ID":68524,"ELEMENT_SET_NO":999,"REV_AT_EPOCH":271,"BSTAR":0.00093949244,"MEAN_MOTION_DOT":0.00189366,"MEAN_MOTION_DDOT":0},{"OBJECT_NAME":"STARLINK-36311","OBJECT_ID":"2026-068T","EPOCH":"2026-04-16T21:39:00.550944","MEAN_MOTION":15.80946391,"ECCENTRICITY":4.012e-5,"INCLINATION":53.159,"RA_OF_ASC_NODE":317.6661,"ARG_OF_PERICENTER":77.9584,"MEAN_ANOMALY":282.1484,"EPHEMERIS_TYPE":0,"CLASSIFICATION_TYPE":"U","NORAD_CAT_ID":68525,"ELEMENT_SET_NO":999,"REV_AT_EPOCH":271,"BSTAR":0.0011738963,"MEAN_MOTION_DOT":0.00238308,"MEAN_MOTION_DDOT":0},{"OBJECT_NAME":"STARLINK-37178","OBJECT_ID":"2026-068U","EPOCH":"2026-04-16T21:40:05.562624","MEAN_MOTION":15.80933871,"ECCENTRICITY":5.409e-5,"INCLINATION":53.158,"RA_OF_ASC_NODE":317.6724,"ARG_OF_PERICENTER":45.5384,"MEAN_ANOMALY":314.5683,"EPHEMERIS_TYPE":0,"CLASSIFICATION_TYPE":"U","NORAD_CAT_ID":68526,"ELEMENT_SET_NO":999,"REV_AT_EPOCH":271,"BSTAR":0.0011207095,"MEAN_MOTION_DOT":0.00227046,"MEAN_MOTION_DDOT":0}]
