STARLINK-37280
1 68511U 26068D   26106.91334453  .00206193  00000+0  10211-2 0  9997
2 68511  53.1579 317.7427 0000640  84.1605 275.9491 15.80923482  2717
STARLINK-37286
1 68512U 26068E   26106.91259208  .00132879  00000+0  66504-3 0  9998
2 68512  53.1584 317.7388 0000630  73.4518 286.6574 15.80919085  2718
STARLINK-36250
1 68513U 26068F   26106.91184286  .00145958  00000+0  72897-3 0  9996
2 68513  53.1579 317.7335 0000764  78.8029 281.3079 15.80921351  2710
STARLINK-37251
1 68514U 26068G   26106.91109385  .00157715  00000+0  78644-3 0  9994
2 68514  53.1583 317.7280 0001098  69.2239 290.8902 15.80918559  2719
STARLINK-36293
1 68515U 26068H   26106.91034367  .00113621  00000+0  57086-3 0  9997
2 68515  53.1582 317.7231 0000968  74.8111 285.3019 15.80903376  2710
STARLINK-36290
1 68516U 26068J   26106.90959855  .00195756  00000+0  96868-3 0  9995
2 68516  53.1582 317.7180 0000888  99.9949 260.1174 15.80970021  2716
STARLINK-36298
1 68517U 26068K   26106.90884192  .00208083  00000+0  10293-2 0  9992
2 68517  53.1582 317.7132 0001107  26.3117 333.7962 15.80941177  2712
STARLINK-36857
1 68518U 26068L   26106.90734290  .00189540  00000+0  94085-3 0  9994
2 68518  53.1580 317.7024 0000662  74.0120 286.0976 15.80920410  2712
STARLINK-36326
1 68519U 26068M   26106.90809156  .00111017  00000+0  55794-3 0  9997
2 68519  53.1583 317.7082 0000765  82.1171 277.9939 15.80906293  2711
STARLINK-37126
1 68520U 26068N   26106.90659288  .00184252  00000+0  91539-3 0  9996
2 68520  53.1579 317.6975 0000392  74.3623 285.7443 15.80917114  2710
STARLINK-36347
1 68521U 26068P   26106.90584186  .00177969  00000+0  88466-3 0  9993
2 68521  53.1585 317.6929 0000513  81.0190 279.0891 15.80924067  2714
STARLINK-36322
1 68522U 26068Q   26106.90509251  .00191341  00000+0  94936-3 0  9993
2 68522  53.1580 317.6878 0000586  63.9348 296.1735 15.80924914  2715
STARLINK-37208
1 68523U 26068R   26106.90434020  .00213381  00000+0  10548-2 0  9990
2 68523  53.1585 317.6825 0000511  78.7909 281.3171 15.80941363  2715
STARLINK-36302
1 68524U 26068S   26106.90359183  .00189366  00000+0  93949-3 0  9999
2 68524  53.1587 317.6775 0000859  62.9573 297.1538 15.80932376  2715
STARLINK-36311
1 68525U 26068T   26106.90208971  .00238308  00000+0  11739-2 0  9995
2 68525  53.1590 317.6661 0000401  77.9584 282.1484 15.80946391  2711
STARLINK-37178
1 68526U 26068U   26106.90284216  .00227046  00000+0  11207-2 0  9999
2 68526  53.1580 317.6724 0000540  45.5384 314.5683 15.80933871  2714
